{
    "links": {
        "self": "http://www.neowsapp.com/rest/v1/neo/3827161?api_key=iIulBulltgU6a56xZRHN4H3l9WmuAYTsLGpBGhQ2"
    },
    "id": "3827161",
    "neo_reference_id": "3827161",
    "name": "(2018 RP)",
    "designation": "2018 RP",
    "nasa_jpl_url": "http://ssd.jpl.nasa.gov/sbdb.cgi?sstr=3827161",
    "absolute_magnitude_h": 26.2,
    "estimated_diameter": {
        "kilometers": {
            "estimated_diameter_min": 0.0152951935,
            "estimated_diameter_max": 0.0342010925
        },
        "meters": {
            "estimated_diameter_min": 15.2951935344,
            "estimated_diameter_max": 34.201092472
        },
        "miles": {
            "estimated_diameter_min": 0.0095039897,
            "estimated_diameter_max": 0.021251567
        },
        "feet": {
            "estimated_diameter_min": 50.1810827555,
            "estimated_diameter_max": 112.2083122258
        }
    },
    "is_potentially_hazardous_asteroid": false,
    "close_approach_data": [
        {
            "close_approach_date": "2016-09-30",
            "close_approach_date_full": "2016-Sep-30 00:01",
            "epoch_date_close_approach": 1475193660000,
            "relative_velocity": {
                "kilometers_per_second": "4.2448651062",
                "kilometers_per_hour": "15281.5143823144",
                "miles_per_hour": "9495.3387560553"
            },
            "miss_distance": {
                "astronomical": "1.8962480762",
                "lunar": "737.6405016418",
                "kilometers": "283674673.191117694",
                "miles": "176267268.2991204172"
            },
            "orbiting_body": "Juptr"
        },
        {
            "close_approach_date": "2018-09-05",
            "close_approach_date_full": "2018-Sep-05 11:26",
            "epoch_date_close_approach": 1536146760000,
            "relative_velocity": {
                "kilometers_per_second": "14.1670602009",
                "kilometers_per_hour": "51001.4167231252",
                "miles_per_hour": "31690.2969633219"
            },
            "miss_distance": {
                "astronomical": "0.0096648465",
                "lunar": "3.7596252885",
                "kilometers": "1445840.450276955",
                "miles": "898403.596273779"
            },
            "orbiting_body": "Earth"
        },
        {
            "close_approach_date": "2018-09-05",
            "close_approach_date_full": "2018-Sep-05 13:20",
            "epoch_date_close_approach": 1536153600000,
            "relative_velocity": {
                "kilometers_per_second": "13.8942275599",
                "kilometers_per_hour": "50019.2192157394",
                "miles_per_hour": "31079.997628802"
            },
            "miss_distance": {
                "astronomical": "0.0089782796",
                "lunar": "3.4925507644",
                "kilometers": "1343131.504424452",
                "miles": "834583.2167113576"
            },
            "orbiting_body": "Moon"
        }
    ],
    "orbital_data": {
        "orbit_id": "3",
        "orbit_determination_date": "2020-11-28 05:19:35",
        "first_observation_date": "2018-09-05",
        "last_observation_date": "2018-09-09",
        "data_arc_in_days": 4,
        "observations_used": 30,
        "orbit_uncertainty": "7",
        "minimum_orbit_intersection": ".00481687",
        "jupiter_tisserand_invariant": "3.267",
        "epoch_osculation": "2459000.5",
        "eccentricity": ".5872162400786712",
        "semi_major_axis": "2.325250753351728",
        "inclination": "17.98786716362709",
        "ascending_node_longitude": "343.0032861614171",
        "orbital_period": "1295.099445700922",
        "perihelion_distance": ".9598257487284285",
        "perihelion_argument": "30.93497628078491",
        "aphelion_distance": "3.690675757975028",
        "perihelion_time": "2458391.328797775218",
        "mean_anomaly": "169.3318868515407",
        "mean_motion": ".2779709320353883",
        "equinox": "J2000",
        "orbit_class": {
            "orbit_class_type": "APO",
            "orbit_class_description": "Near-Earth asteroid orbits which cross the Earth’s orbit similar to that of 1862 Apollo",
            "orbit_class_range": "a (semi-major axis) > 1.0 AU; q (perihelion) < 1.017 AU"
        }
    },
    "is_sentry_object": false
}